{"type": "FeatureCollection", "totalFeatures": 6, "features": [{"type": "Feature", "id": "view_aviso.fid-5ad84ba9_1a0ea024327_5326", "geometry": {"type": "MultiPolygon", "coordinates": [[[[-69.1473, -14.5489], [-69.2794, -15.1006], [-68.9843, -16.1901], [-70.645, -18.1809], [-70.8644, -18.0188], [-71.0212, -17.8821], [-71.2764, -17.7317], [-71.3636, -17.4878], [-71.4771, -17.3208], [-71.8343, -17.1737], [-72.1122, -17.0158], [-72.1923, -16.9258], [-72.2992, -16.8258], [-72.4336, -16.7172], [-72.9563, -16.5168], [-73.1971, -16.4093], [-73.4561, -16.2804], [-73.7217, -16.2031], [-74.1459, -15.9113], [-74.3554, -15.8401], [-74.7526, -15.5993], [-75.0909, -15.4239], [-75.2407, -15.2714], [-75.3922, -15.0911], [-75.6035, -14.8533], [-75.929, -14.6153], [-76.0966, -14.3695], [-76.2513, -14.1537], [-76.2785, -13.994], [-76.3094, -13.8401], [-76.2412, -13.3288], [-76.5138, -12.9531], [-76.5295, -12.84], [-76.6301, -12.7219], [-76.6788, -12.6212], [-76.7906, -12.5143], [-76.8024, -12.4823], [-76.7799, -12.4198], [-76.7828, -12.39], [-76.8347, -12.3284], [-76.94, -12.2477], [-77.0206, -12.2115], [-77.0346, -12.1728], [-77.034, -12.1318], [-77.0754, -12.0967], [-77.1673, -12.0742], [-77.1455, -12.0308], [-77.1345, -11.9575], [-77.1461, -11.9053], [-77.1734, -11.8451], [-77.1811, -11.8232], [-77.1911, -11.7835], [-77.1805, -11.7757], [-77.1944, -11.6997], [-77.4774, -11.3894], [-77.6187, -11.1225], [-77.7865, -10.7404], [-77.9794, -10.4423], [-78.0872, -10.2591], [-78.1804, -10.0364], [-78.2409, -9.8751], [-78.298, -9.7021], [-78.3695, -9.5884], [-78.4029, -9.4729], [-78.4198, -9.3617], [-78.5189, -9.2774], [-78.569, -9.2244], [-78.5907, -9.1666], [-78.6215, -9.016], [-78.7785, -8.5688], [-79.1737, -8.0256], [-79.5885, -7.4174], [-79.7923, -7.0082], [-80.4842, -6.4421], [-81.0838, -5.799], [-81.0339, -5.3479], [-81.1094, -5.08], [-81.3036, -4.4818], [-81.1559, -4.193], [-80.6836, -3.6795], [-80.4153, -3.4867], [-80.2255, -3.4329], [-80.1875, -3.6714], [-78.983, -4.9294], [-78.7277, -4.6259], [-78.5661, -3.9933], [-78.3576, -3.4662], [-78.057, -3.2119], [-75.2398, -0.6456], [-75.2882, -0.5031], [-75.4197, -0.3834], [-75.4896, -0.2318], [-75.5521, -0.1297], [-75.3816, -0.1663], [-74.5508, -0.4239], [-73.574, -1.414], [-73.0158, -2.3457], [-71.726, -2.1421], [-70.3471, -2.5407], [-70.1774, -4.3398], [-70.8025, -4.1837], [-71.32, -4.4219], [-71.696, -4.5034], [-71.9846, -4.6273], [-72.2797, -4.7983], [-72.4766, -4.9332], [-72.7562, -5.0815], [-72.8811, -5.3073], [-72.9528, -5.5763], [-73.0491, -5.7832], [-73.1823, -5.9513], [-73.2461, -6.1349], [-73.1351, -6.3638], [-73.1822, -6.5405], [-73.3167, -6.5934], [-73.4181, -6.6472], [-73.538, -6.6847], [-73.6441, -6.7713], [-73.7597, -6.9763], [-73.7025, -7.2894], [-73.9157, -7.5905], [-73.7587, -7.8699], [-73.6008, -8.1036], [-73.3298, -8.5253], [-73.1102, -8.8049], [-72.9696, -8.9784], [-73.0153, -9.1862], [-72.7073, -9.4306], [-72.6012, -9.455], [-72.4977, -9.4834], [-72.3602, -9.4955], [-72.2551, -9.6154], [-72.164, -9.9135], [-71.0677, -9.8271], [-70.9128, -9.7262], [-70.7743, -9.6104], [-70.6689, -9.5234], [-70.5477, -9.429], [-70.5884, -9.599], [-70.5325, -9.7381], [-70.4501, -11.0017], [-70.152, -11.0335], [-69.7987, -10.9286], [-68.6971, -12.5882], [-68.8544, -12.8642], [-68.8753, -13.1401], [-68.8916, -13.4234], [-69.0663, -13.6839], [-68.9714, -13.9624], [-68.9736, -14.2351], [-69.1473, -14.5489]], [[-70.6574, -10.0551], [-70.6581, -10.0541], [-70.6574, -10.057], [-70.6574, -10.0551]]]]}, "geometry_name": "geom", "properties": {"gid": 25750, "nro_aviso": 383, "nro_mapa": 1, "nivel": "Nivel 1", "fecha_emi": "2026-09-26Z", "cod_fen": "1", "cod_even": "01", "fech_ini": "2026-09-28T05:00:00Z", "fech_fin": "2026-09-29T04:59:59Z", "cod_sede": "00", "respons": "YNINANYA", "pub": 3, "cap": 0}}, {"type": "Feature", "id": "view_aviso.fid-5ad84ba9_1a0ea024327_532e", "geometry": {"type": "MultiPolygon", "coordinates": [[[[-80.1886, -3.7474], [-80.1855, -3.7463], [-80.1853, -3.7465], [-80.1848, -3.7472], [-80.1841, -3.7477], [-80.1834, -3.7484], [-80.1834, -3.7487], [-80.1831, -3.749], [-80.183, -3.7494], [-80.183, -3.7503], [-80.183, -3.751], [-80.1836, -3.7517], [-80.1838, -3.7518], [-80.184, -3.7517], [-80.1845, -3.7514], [-80.1846, -3.7511], [-80.185, -3.7507], [-80.186, -3.749], [-80.1865, -3.7483], [-80.1869, -3.748], [-80.1877, -3.7476], [-80.1882, -3.7475], [-80.1883, -3.7474], [-80.1886, -3.7474]]]]}, "geometry_name": "geom", "properties": {"gid": 25752, "nro_aviso": 383, "nro_mapa": 1, "nivel": "Nivel 1", "fecha_emi": "2026-09-26Z", "cod_fen": "1", "cod_even": "01", "fech_ini": "2026-09-28T05:00:00Z", "fech_fin": "2026-09-29T04:59:59Z", "cod_sede": "00", "respons": "YNINANYA", "pub": 3, "cap": 0}}, {"type": "Feature", "id": "view_aviso.fid-5ad84ba9_1a0ea024327_532f", "geometry": {"type": "MultiPolygon", "coordinates": [[[[-79.1335, -4.9727], [-78.6409, -6.4281], [-79.3511, -6.2746], [-80.2149, -4.6828], [-80.1901, -3.7542], [-80.1926, -3.7717], [-80.1819, -3.783], [-80.1674, -3.7968], [-80.1595, -3.8094], [-80.1625, -3.8271], [-80.1529, -3.8495], [-80.1585, -3.8611], [-80.153, -3.8751], [-80.1354, -3.888], [-80.1271, -3.8954], [-80.1396, -3.9103], [-80.1598, -3.9149], [-80.1835, -3.9272], [-80.1974, -3.9453], [-80.2185, -3.9549], [-80.2345, -3.9485], [-80.2368, -3.9632], [-80.2502, -3.9779], [-80.2562, -3.9863], [-80.2657, -4.001], [-80.2851, -4.0123], [-80.304, -4.0149], [-80.3271, -4.0077], [-80.3493, -3.9953], [-80.3804, -3.9883], [-80.4064, -3.9875], [-80.4267, -3.9954], [-80.4463, -3.9992], [-80.4453, -4.0159], [-80.451, -4.0289], [-80.4762, -4.0505], [-80.4721, -4.0727], [-80.4825, -4.0869], [-80.4637, -4.117], [-80.4542, -4.1254], [-80.4499, -4.1283], [-80.4311, -4.1961], [-80.4083, -4.2175], [-80.3716, -4.1978], [-80.3557, -4.2163], [-80.344, -4.2109], [-80.3239, -4.2086], [-80.3147, -4.2114], [-80.333, -4.2298], [-80.344, -4.2439], [-80.3548, -4.2608], [-80.3674, -4.2785], [-80.3859, -4.2934], [-80.3968, -4.302], [-80.4127, -4.3199], [-80.4293, -4.3416], [-80.4354, -4.3616], [-80.4482, -4.3755], [-80.451, -4.3902], [-80.4523, -4.3978], [-80.4523, -4.413], [-80.4502, -4.4295], [-80.4457, -4.4392], [-80.4438, -4.4481], [-80.4254, -4.463], [-80.4137, -4.4644], [-80.3972, -4.4799], [-80.3789, -4.4772], [-80.3524, -4.4729], [-80.3269, -4.4595], [-80.3029, -4.4431], [-80.2933, -4.4302], [-80.2679, -4.4097], [-80.2483, -4.393], [-80.2312, -4.3724], [-80.223, -4.3707], [-80.2183, -4.3535], [-80.2092, -4.3534], [-80.1957, -4.3454], [-80.1938, -4.3355], [-80.1831, -4.3161], [-80.1758, -4.2966], [-80.1657, -4.2949], [-80.1532, -4.2992], [-80.1382, -4.286], [-80.1322, -4.2964], [-80.1093, -4.2982], [-80.097, -4.294], [-80.089, -4.301], [-80.0728, -4.3089], [-80.0609, -4.311], [-80.0483, -4.3313], [-80.0379, -4.3433], [-80.0261, -4.3522], [-80.0106, -4.3625], [-79.995, -4.3763], [-79.9717, -4.3872], [-79.9555, -4.392], [-79.9358, -4.3947], [-79.9143, -4.3891], [-79.8921, -4.4014], [-79.8725, -4.4128], [-79.8582, -4.4294], [-79.8545, -4.4476], [-79.843, -4.4616], [-79.8326, -4.4709], [-79.8178, -4.4845], [-79.8009, -4.4885], [-79.7837, -4.4912], [-79.7707, -4.4873], [-79.7489, -4.483], [-79.7262, -4.4699], [-79.7057, -4.4704], [-79.691, -4.459], [-79.6768, -4.4481], [-79.6623, -4.4412], [-79.6438, -4.4334], [-79.6281, -4.4391], [-79.6112, -4.4503], [-79.6013, -4.4575], [-79.5937, -4.4688], [-79.5821, -4.4841], [-79.5799, -4.4972], [-79.5687, -4.5075], [-79.5536, -4.5135], [-79.5285, -4.5275], [-79.5102, -4.5179], [-79.4863, -4.5361], [-79.4792, -4.5633], [-79.4919, -4.5768], [-79.4888, -4.6138], [-79.4784, -4.634], [-79.4632, -4.66], [-79.459, -4.6865], [-79.4514, -4.7109], [-79.4329, -4.7366], [-79.4104, -4.7892], [-79.3839, -4.8329], [-79.3583, -4.8574], [-79.3464, -4.8852], [-79.3185, -4.8909], [-79.2872, -4.9356], [-79.2479, -4.9671], [-79.2133, -4.9673], [-79.1787, -4.9612], [-79.1548, -4.9648], [-79.1356, -4.9714], [-79.1335, -4.9727]]]]}, "geometry_name": "geom", "properties": {"gid": 25753, "nro_aviso": 383, "nro_mapa": 1, "nivel": "Nivel 2", "fecha_emi": "2026-09-26Z", "cod_fen": "1", "cod_even": "01", "fech_ini": "2026-09-28T05:00:00Z", "fech_fin": "2026-09-29T04:59:59Z", "cod_sede": "00", "respons": "YNINANYA", "pub": 3, "cap": 0}}, {"type": "Feature", "id": "view_aviso.fid-5ad84ba9_1a0ea024327_5330", "geometry": {"type": "MultiPolygon", "coordinates": [[[[-69.3027, -16.9137], [-69.3246, -16.9515], [-69.3211, -16.9587], [-69.3201, -16.9608], [-69.3354, -16.9803], [-69.3569, -16.9887], [-69.3682, -16.9905], [-69.3691, -16.9905], [-69.3701, -16.9917], [-69.372, -16.9933], [-69.3736, -16.9963], [-69.3746, -16.9974], [-69.3767, -17.0], [-69.3775, -17.0012], [-69.3786, -17.0023], [-69.38, -17.004], [-69.3806, -17.0055], [-69.381, -17.0058], [-69.3828, -17.0064], [-69.3838, -17.0077], [-69.3846, -17.0098], [-69.3849, -17.0104], [-69.3855, -17.0112], [-69.3854, -17.0125], [-69.3858, -17.0129], [-69.3872, -17.0136], [-69.3882, -17.0153], [-69.3898, -17.0155], [-69.3905, -17.0163], [-69.3909, -17.0179], [-69.3928, -17.0195], [-69.3937, -17.0211], [-69.3943, -17.0218], [-69.3943, -17.0228], [-69.3946, -17.0239], [-69.3932, -17.0252], [-69.3876, -17.0283], [-69.3841, -17.0312], [-69.3831, -17.034], [-69.382, -17.0366], [-69.3817, -17.0385], [-69.3809, -17.0398], [-69.3779, -17.0432], [-69.3763, -17.0453], [-69.3749, -17.0465], [-69.3731, -17.0483], [-69.3728, -17.0497], [-69.3726, -17.0512], [-69.3737, -17.0529], [-69.3752, -17.055], [-69.3741, -17.0579], [-69.3737, -17.0719], [-69.3825, -17.0804], [-69.3868, -17.084], [-69.4329, -17.1099], [-69.4491, -17.0978], [-69.4666, -17.1127], [-69.4831, -17.1254], [-69.5429, -17.1552], [-69.5622, -17.1734], [-69.5732, -17.1852], [-69.5732, -17.1869], [-69.569, -17.194], [-69.5742, -17.1986], [-69.5762, -17.2012], [-69.578, -17.2041], [-69.5781, -17.2065], [-69.5798, -17.2081], [-69.5824, -17.209], [-69.5854, -17.2095], [-69.5877, -17.2096], [-69.5892, -17.2103], [-69.5916, -17.2099], [-69.5926, -17.2101], [-69.5944, -17.213], [-69.5985, -17.2147], [-69.6011, -17.2165], [-69.6022, -17.219], [-69.6038, -17.2216], [-69.6037, -17.2244], [-69.6042, -17.2265], [-69.6063, -17.2273], [-69.6066, -17.2283], [-69.6062, -17.2301], [-69.6119, -17.2483], [-69.6283, -17.2735], [-69.6317, -17.2735], [-69.6331, -17.2724], [-69.6357, -17.2709], [-69.6366, -17.2721], [-69.638, -17.2757], [-69.6404, -17.2781], [-69.6433, -17.2801], [-69.6444, -17.2816], [-69.6426, -17.2842], [-69.6414, -17.2863], [-69.6163, -17.2864], [-69.5994, -17.2874], [-69.5197, -17.3349], [-69.4677, -17.4095], [-69.4683, -17.5042], [-69.6193, -17.4355], [-69.8573, -17.2749], [-69.9941, -17.0488], [-70.0893, -16.8704], [-70.3153, -16.6324], [-70.464, -16.3469], [-70.7258, -16.1684], [-70.6425, -15.8353], [-70.2618, -15.9662], [-70.0655, -16.1446], [-69.9584, -16.3707], [-69.7918, -16.567], [-69.5836, -16.7335], [-69.3516, -16.8941], [-69.3027, -16.9137]]]]}, "geometry_name": "geom", "properties": {"gid": 25751, "nro_aviso": 383, "nro_mapa": 1, "nivel": "Nivel 3", "fecha_emi": "2026-09-26Z", "cod_fen": "1", "cod_even": "01", "fech_ini": "2026-09-28T05:00:00Z", "fech_fin": "2026-09-29T04:59:59Z", "cod_sede": "00", "respons": "YNINANYA", "pub": 3, "cap": 0}}, {"type": "Feature", "id": "view_aviso.fid-5ad84ba9_1a0ea024327_5331", "geometry": {"type": "MultiPolygon", "coordinates": [[[[-69.1473, -14.5489], [-69.1465, -14.5535], [-69.1476, -14.5583], [-69.1497, -14.5604], [-69.1491, -14.5625], [-69.1476, -14.5663], [-69.1467, -14.5708], [-69.1476, -14.5757], [-69.1491, -14.5793], [-69.1536, -14.583], [-69.1579, -14.5858], [-69.1619, -14.5878], [-69.1674, -14.5888], [-69.1744, -14.5893], [-69.1803, -14.5904], [-69.1852, -14.5894], [-69.1889, -14.5867], [-69.1912, -14.5859], [-69.1949, -14.586], [-69.2006, -14.5856], [-69.2054, -14.5848], [-69.2094, -14.5842], [-69.2163, -14.5827], [-69.22, -14.5816], [-69.2217, -14.5832], [-69.2221, -14.585], [-69.2208, -14.5894], [-69.222, -14.5925], [-69.2251, -14.5949], [-69.2277, -14.5973], [-69.2296, -14.5997], [-69.2299, -14.6019], [-69.2306, -14.6073], [-69.2304, -14.6108], [-69.2305, -14.6147], [-69.2294, -14.6188], [-69.2277, -14.6218], [-69.2267, -14.6252], [-69.2255, -14.6274], [-69.2263, -14.6306], [-69.2276, -14.6328], [-69.2277, -14.6356], [-69.2276, -14.6383], [-69.2271, -14.6427], [-69.2277, -14.6478], [-69.2282, -14.6515], [-69.2279, -14.6542], [-69.2297, -14.6567], [-69.2322, -14.6563], [-69.2348, -14.6575], [-69.2388, -14.6594], [-69.2429, -14.6597], [-69.2462, -14.6626], [-69.2471, -14.6672], [-69.2483, -14.6708], [-69.2516, -14.6722], [-69.2553, -14.6791], [-69.258, -14.6852], [-69.2527, -14.6909], [-69.2525, -14.6954], [-69.2546, -14.6982], [-69.2529, -14.7017], [-69.2506, -14.7045], [-69.2479, -14.7079], [-69.2447, -14.7112], [-69.2444, -14.7133], [-69.2416, -14.717], [-69.2381, -14.7172], [-69.2353, -14.7187], [-69.2334, -14.7236], [-69.2343, -14.7264], [-69.2319, -14.7291], [-69.2292, -14.7336], [-69.2259, -14.7364], [-69.2269, -14.7432], [-69.2428, -14.7596], [-69.2683, -14.7667], [-69.2709, -14.7696], [-69.2802, -14.765], [-69.2948, -14.7662], [-69.3092, -14.7698], [-69.3191, -14.7753], [-69.3317, -14.7845], [-69.3374, -14.7923], [-69.3399, -14.7956], [-69.341, -14.7951], [-69.3437, -14.7928], [-69.3522, -14.7989], [-69.3561, -14.8318], [-69.3578, -14.8379], [-69.3578, -14.841], [-69.3571, -14.844], [-69.357, -14.8458], [-69.3561, -14.8495], [-69.3568, -14.8518], [-69.3555, -14.8548], [-69.3546, -14.8574], [-69.3508, -14.8667], [-69.345, -14.8873], [-69.3538, -14.9244], [-69.3577, -14.9302], [-69.3626, -14.9304], [-69.3638, -14.9312], [-69.3626, -14.9331], [-69.3608, -14.9344], [-69.3596, -14.9385], [-69.3599, -14.9434], [-69.3606, -14.9448], [-69.3604, -14.947], [-69.3613, -14.9483], [-69.3613, -14.9523], [-69.3603, -14.9566], [-69.3604, -14.9589], [-69.3601, -14.9605], [-69.3606, -14.9611], [-69.3598, -14.9617], [-69.358, -14.9627], [-69.3562, -14.9643], [-69.3547, -14.9665], [-69.355, -14.9671], [-69.3551, -14.9684], [-69.355, -14.969], [-69.5008, -14.8049], [-69.715, -14.6562], [-69.941, -14.4718], [-70.2682, -14.3707], [-70.5954, -14.222], [-70.988, -14.1446], [-71.2973, -13.8948], [-71.107, -13.7163], [-70.8036, -13.6747], [-70.405, -13.7758], [-70.1671, -13.8472], [-69.9529, -13.9662], [-69.7864, -14.0851], [-69.5246, -14.2339], [-69.2688, -14.454], [-69.1473, -14.5489]]]]}, "geometry_name": "geom", "properties": {"gid": 25755, "nro_aviso": 383, "nro_mapa": 1, "nivel": "Nivel 2", "fecha_emi": "2026-09-26Z", "cod_fen": "1", "cod_even": "01", "fech_ini": "2026-09-28T05:00:00Z", "fech_fin": "2026-09-29T04:59:59Z", "cod_sede": "00", "respons": "YNINANYA", "pub": 3, "cap": 0}}, {"type": "Feature", "id": "view_aviso.fid-5ad84ba9_1a0ea024327_5332", "geometry": {"type": "MultiPolygon", "coordinates": [[[[-73.48, -14.2232], [-73.0398, -14.247], [-72.6472, -14.2054], [-72.1713, -14.3422], [-71.8798, -14.4909], [-71.5586, -14.598], [-71.2493, -14.8121], [-70.7853, -14.9965], [-70.5414, -15.1512], [-70.2558, -15.3059], [-70.0417, -15.5319], [-69.8097, -15.7996], [-69.5004, -16.0078], [-69.2089, -16.2457], [-68.9835, -16.4385], [-69.0361, -16.5619], [-69.039, -16.5665], [-69.0369, -16.577], [-69.0354, -16.5872], [-69.034, -16.5948], [-69.0313, -16.6058], [-69.0225, -16.6154], [-69.0206, -16.6206], [-69.0181, -16.6359], [-69.0097, -16.6459], [-69.0, -16.6534], [-69.0119, -16.6698], [-69.0188, -16.6707], [-69.0239, -16.6716], [-69.026, -16.6746], [-69.027, -16.6762], [-69.0324, -16.6791], [-69.0406, -16.6844], [-69.0424, -16.686], [-69.0441, -16.6881], [-69.0453, -16.6883], [-69.0464, -16.6877], [-69.0514, -16.6872], [-69.0552, -16.6867], [-69.0647, -16.6939], [-69.0731, -16.6963], [-69.0821, -16.7015], [-69.1045, -16.7125], [-69.1239, -16.7162], [-69.127, -16.7136], [-69.1332, -16.713], [-69.141, -16.7157], [-69.1474, -16.7204], [-69.153, -16.7246], [-69.1762, -16.7435], [-69.1819, -16.773], [-69.1862, -16.7976], [-69.1956, -16.7992], [-69.2109, -16.8188], [-69.2133, -16.8229], [-69.2192, -16.8361], [-69.2534, -16.861], [-69.2611, -16.8688], [-69.2834, -16.8927], [-69.3027, -16.9137], [-69.5301, -16.7811], [-69.7205, -16.6265], [-69.9108, -16.4421], [-70.0119, -16.2101], [-70.2439, -16.0435], [-70.5116, -15.8115], [-70.7734, -16.097], [-70.5473, -16.2755], [-70.3748, -16.5372], [-70.1488, -16.8049], [-70.006, -16.9893], [-69.9168, -17.2094], [-69.7264, -17.3879], [-69.506, -17.5363], [-69.5549, -17.5777], [-69.618, -17.6229], [-69.7264, -17.6139], [-69.893, -17.3938], [-70.0655, -17.2868], [-70.2082, -17.0607], [-70.3867, -16.8704], [-70.464, -16.6622], [-70.583, -16.4539], [-70.7734, -16.2279], [-70.9637, -16.1446], [-71.2255, -15.9126], [-71.3682, -15.6925], [-71.5645, -15.5438], [-71.8679, -15.4427], [-72.1832, -15.2821], [-72.4806, -15.1036], [-72.6829, -15.0025], [-73.0458, -14.9668], [-73.3014, -14.8657], [-73.6404, -14.7884], [-73.8486, -14.7408], [-73.9855, -14.6099], [-74.1401, -14.4612], [-74.3186, -14.3244], [-74.5744, -14.2173], [-74.7171, -14.0031], [-74.9075, -13.8187], [-75.0146, -13.6165], [-75.0861, -13.4201], [-75.3122, -13.1465], [-75.477, -12.9453], [-75.5189, -12.8514], [-75.6438, -12.6254], [-75.6795, -12.4201], [-75.5427, -12.2863], [-75.4237, -12.3874], [-75.3047, -12.548], [-75.2066, -12.7027], [-75.0623, -12.8491], [-74.7947, -13.0216], [-74.521, -13.2655], [-74.3664, -13.4618], [-74.1165, -13.7176], [-73.6525, -14.1221], [-73.48, -14.2232]]]]}, "geometry_name": "geom", "properties": {"gid": 25754, "nro_aviso": 383, "nro_mapa": 1, "nivel": "Nivel 2", "fecha_emi": "2026-09-26Z", "cod_fen": "1", "cod_even": "01", "fech_ini": "2026-09-28T05:00:00Z", "fech_fin": "2026-09-29T04:59:59Z", "cod_sede": "00", "respons": "YNINANYA", "pub": 3, "cap": 0}}], "crs": {"type": "name", "properties": {"name": "urn:ogc:def:crs:EPSG::4326"}}, "_note": "Trimmed fixture: geometry decimated (every k-th vertex, 4 decimals). Use only for tests, not for real alerting. Source: wfs383_1.json"}