{"type": "FeatureCollection", "totalFeatures": 4, "features": [{"type": "Feature", "id": "view_aviso.fid-5ad84ba9_1a0ea024327_6857", "geometry": {"type": "MultiPolygon", "coordinates": [[[[-73.883, -15.0629], [-70.7321, -18.1057], [-70.8896, -17.9726], [-71.0977, -17.8617], [-71.3626, -17.6715], [-71.421, -17.3706], [-71.5813, -17.252], [-72.0534, -17.0175], [-72.16, -16.9519], [-72.2904, -16.8674], [-72.379, -16.7556], [-72.8873, -16.5379], [-73.1532, -16.4282], [-73.3955, -16.3051], [-73.6986, -16.2321], [-74.1011, -15.9316], [-74.3554, -15.8401], [-74.7742, -15.5893], [-75.1049, -15.4138], [-75.2573, -15.2568], [-75.4124, -15.046], [-75.6857, -14.8142], [-75.9574, -14.5415], [-76.1352, -14.3269], [-76.2845, -14.1721], [-76.319, -13.9166], [-76.2179, -13.7005], [-76.4693, -13.0548], [-76.512, -12.8979], [-76.6108, -12.7732], [-76.6703, -12.6572], [-76.7474, -12.5388], [-76.8006, -12.4947], [-76.7843, -12.4495], [-76.7785, -12.3951], [-76.8283, -12.3385], [-76.92, -12.2607], [-77.0165, -12.2133], [-77.0342, -12.1784], [-77.0334, -12.1321], [-77.0775, -12.0957], [-77.1703, -12.0733], [-77.1416, -12.0222], [-77.1378, -11.9407], [-77.1493, -11.896], [-77.1824, -11.8442], [-77.178, -11.8162], [-77.1974, -11.7749], [-77.1705, -11.7511], [-77.2817, -11.5875], [-77.6408, -11.2765], [-77.702, -10.8794], [-77.9628, -10.489], [-78.0426, -10.3553], [-78.1736, -10.1185], [-78.2283, -9.9423], [-78.2772, -9.7418], [-78.3643, -9.6206], [-78.3928, -9.4918], [-78.4299, -9.3774], [-78.5017, -9.3001], [-78.5625, -9.2286], [-78.5955, -9.1671], [-78.6284, -9.0085], [-78.8254, -8.5231], [-79.2072, -8.0007], [-79.5842, -7.3585], [-79.9266, -6.8784], [-80.7519, -6.3139], [-80.9625, -5.8437], [-81.1673, -5.2379], [-81.1817, -4.8497], [-81.2561, -4.4042], [-81.0025, -4.0241], [-80.4857, -3.5019], [-80.3817, -3.493], [-80.2088, -3.5406], [-80.1515, -3.8547], [-80.4161, -3.991], [-80.3609, -4.2656], [-80.2971, -4.4396], [-80.0549, -4.3212], [-79.7363, -4.4759], [-79.4834, -4.6293], [-79.0114, -5.0113], [-78.8667, -4.6938], [-78.5721, -4.115], [-78.3912, -3.5609], [-78.1172, -3.2888], [-75.272, -0.6685], [-75.2809, -0.4985], [-75.4182, -0.3865], [-75.4948, -0.227], [-75.5423, -0.1209], [-75.3565, -0.1484], [-74.4019, -0.5414], [-73.5279, -1.6751], [-72.6867, -2.4523], [-71.3904, -2.4071], [-70.6879, -3.7925], [-70.4197, -4.135], [-70.9878, -4.364], [-71.5001, -4.441], [-71.9064, -4.5152], [-72.1388, -4.7116], [-72.3882, -4.8655], [-72.6429, -5.0606], [-72.8689, -5.2192], [-72.956, -5.4902], [-73.027, -5.7331], [-73.167, -5.9072], [-73.2372, -6.1005], [-73.1452, -6.3353], [-73.1876, -6.5228], [-73.3135, -6.5938], [-73.4196, -6.648], [-73.5406, -6.6897], [-73.6559, -6.7873], [-73.7622, -7.0089], [-73.7495, -7.3508], [-73.8581, -7.677], [-73.7378, -7.9499], [-73.5852, -8.2331], [-73.2931, -8.6525], [-73.0793, -8.861], [-72.9543, -9.1315], [-73.0756, -9.2377], [-72.6561, -9.4517], [-72.5433, -9.4691], [-72.4179, -9.4832], [-72.2813, -9.5461], [-72.1566, -9.8324], [-71.1791, -9.9133], [-70.9495, -9.743], [-70.7919, -9.6329], [-70.6867, -9.5327], [-70.5629, -9.4311], [-70.5861, -9.5888], [-70.5334, -9.7372], [-70.4463, -11.0077], [-70.1159, -11.0079], [-69.7599, -10.9395], [-68.7352, -12.6641], [-68.8685, -12.9299], [-68.8665, -13.1895], [-68.9198, -13.512], [-68.9769, -13.7626], [-68.8821, -14.0683], [-68.9908, -14.3826], [-73.8572, -13.3817], [-73.883, -15.0629]], [[-70.6581, -10.0541], [-70.6574, -10.057], [-70.6574, -10.0551], [-70.6581, -10.0541]]]]}, "geometry_name": "geom", "properties": {"gid": 23886, "nro_aviso": 230, "nro_mapa": 1, "nivel": "Nivel 1", "fecha_emi": "2026-06-11Z", "cod_fen": "7", "cod_even": "02", "fech_ini": "2026-06-13T05:00:00Z", "fech_fin": "2026-06-14T04:59:59Z", "cod_sede": "00", "respons": "GLIMAY", "pub": 3, "cap": 0}}, {"type": "Feature", "id": "view_aviso.fid-5ad84ba9_1a0ea024327_6858", "geometry": {"type": "MultiPolygon", "coordinates": [[[[-77.7797, -8.5096], [-77.3466, -9.0854], [-77.0754, -9.5471], [-76.9219, -10.3063], [-76.5008, -10.6025], [-76.1331, -10.7024], [-75.7346, -10.9523], [-75.2158, -11.5567], [-74.9065, -11.7423], [-74.8387, -12.2753], [-74.0892, -12.8939], [-73.4884, -13.6256], [-72.84, -13.7327], [-72.1023, -14.0004], [-71.8406, -13.2865], [-70.9745, -13.6387], [-69.7847, -14.4572], [-69.252, -14.6922], [-69.25, -14.7054], [-69.24, -14.7172], [-69.2325, -14.7278], [-69.2428, -14.7596], [-69.3027, -14.7658], [-69.3395, -14.7953], [-69.3561, -14.8318], [-69.3568, -14.8465], [-69.3534, -14.8608], [-69.3646, -14.931], [-69.3599, -14.9434], [-69.361, -14.9533], [-69.3603, -14.9613], [-69.3549, -14.9669], [-69.355, -14.9706], [-69.3483, -14.9799], [-69.3435, -14.9825], [-69.3398, -14.9881], [-69.3365, -14.9922], [-69.3334, -14.994], [-69.3294, -14.9982], [-69.3252, -15.0049], [-69.3246, -15.0067], [-69.3237, -15.0102], [-69.3226, -15.0118], [-69.321, -15.0186], [-69.3196, -15.0242], [-69.3198, -15.0282], [-69.3176, -15.0318], [-69.3143, -15.0363], [-69.3107, -15.0395], [-69.3076, -15.0421], [-69.3052, -15.045], [-69.3013, -15.0511], [-69.3001, -15.0589], [-69.2957, -15.0683], [-69.2953, -15.0735], [-69.2894, -15.0766], [-69.2923, -15.0821], [-69.2864, -15.0827], [-69.2852, -15.0946], [-69.2826, -15.0971], [-69.2791, -15.1033], [-69.2736, -15.1063], [-69.2725, -15.1072], [-69.2692, -15.1086], [-69.2656, -15.1172], [-69.2584, -15.1108], [-69.2461, -15.1138], [-69.2446, -15.1207], [-69.2359, -15.121], [-69.2337, -15.1264], [-69.228, -15.1319], [-69.2156, -15.1415], [-69.2015, -15.1524], [-69.1905, -15.1588], [-69.1846, -15.171], [-69.1684, -15.1905], [-69.1476, -15.2179], [-69.1328, -15.2324], [-69.1318, -15.2413], [-69.1287, -15.2465], [-69.1202, -15.2601], [-69.1284, -15.2595], [-69.1379, -15.2559], [-69.1438, -15.261], [-69.178, -15.2792], [-69.2545, -15.3724], [-69.304, -15.4822], [-69.3129, -15.5098], [-69.3415, -15.8383], [-69.0922, -16.2242], [-69.0272, -16.2092], [-68.983, -16.1901], [-68.9646, -16.1919], [-68.9156, -16.236], [-69.035, -16.5848], [-69.0171, -16.6382], [-69.026, -16.6746], [-69.0451, -16.6883], [-69.0749, -16.6973], [-69.1418, -16.7162], [-69.1956, -16.7992], [-69.2834, -16.8927], [-69.3608, -16.9892], [-69.3758, -16.9987], [-69.381, -17.0058], [-69.3853, -17.012], [-69.3904, -17.0172], [-69.3946, -17.0239], [-69.3818, -17.0379], [-69.373, -17.0485], [-69.3737, -17.0719], [-69.4831, -17.1254], [-69.5742, -17.1986], [-69.5841, -17.2095], [-69.5951, -17.2138], [-69.6042, -17.2265], [-69.6317, -17.2735], [-69.6414, -17.2792], [-69.5943, -17.2883], [-69.7523, -17.6497], [-69.7978, -17.8213], [-69.7532, -17.9896], [-69.893, -18.1795], [-70.5771, -17.4002], [-71.0708, -16.7459], [-72.0167, -16.502], [-72.6353, -16.0618], [-73.712, -15.8417], [-73.9024, -15.1635], [-74.684, -14.3216], [-75.2848, -13.8457], [-75.2967, -13.2152], [-75.6775, -12.8797], [-75.7441, -12.28], [-76.1438, -12.0564], [-76.4579, -11.7803], [-76.7054, -11.333], [-76.979, -10.9166], [-77.2503, -10.6489], [-77.0718, -10.3777], [-77.3704, -10.1296], [-77.8487, -9.0302], [-77.7797, -8.5096]], [[-70.4289, -14.1934], [-70.3992, -14.0447], [-70.5598, -13.9852], [-70.6728, -13.8662], [-70.7621, -13.8008], [-70.8572, -13.7413], [-71.0238, -13.6996], [-71.2439, -13.7234], [-71.3093, -13.8186], [-71.3391, -13.9435], [-71.2974, -14.0982], [-71.3212, -14.2112], [-71.4818, -14.1815], [-71.6008, -14.1934], [-71.6603, -14.3242], [-71.7793, -14.3302], [-71.9161, -14.3599], [-72.0232, -14.3302], [-72.1719, -14.354], [-72.2314, -14.2707], [-72.2373, -14.1398], [-72.1957, -14.0149], [-72.1362, -13.8662], [-72.279, -13.7413], [-72.5645, -13.7115], [-72.7787, -13.7651], [-72.8738, -13.9197], [-73.0047, -14.0209], [-73.1653, -14.0506], [-73.3021, -14.1339], [-73.3497, -14.1934], [-73.3973, -14.2648], [-73.4806, -14.3599], [-73.4984, -14.4432], [-73.4568, -14.5205], [-73.4568, -14.5979], [-73.4033, -14.6514], [-73.3378, -14.6276], [-73.2367, -14.6514], [-73.1356, -14.6098], [-73.0285, -14.58], [-72.8798, -14.6455], [-72.8203, -14.7287], [-72.85, -14.812], [-72.9274, -14.8358], [-72.9333, -14.9667], [-72.9512, -15.0738], [-72.9928, -15.1868], [-73.082, -15.282], [-73.1296, -15.3474], [-73.082, -15.4069], [-73.0582, -15.4842], [-72.9333, -15.4961], [-72.8798, -15.5794], [-72.9333, -15.7162], [-72.8143, -15.7162], [-72.7073, -15.7222], [-72.5705, -15.6508], [-72.4693, -15.6627], [-72.4158, -15.746], [-72.3206, -15.74], [-72.3206, -15.6032], [-72.2314, -15.6627], [-72.16, -15.74], [-72.2195, -15.859], [-72.1422, -15.9601], [-71.9696, -15.9244], [-71.8447, -16.0018], [-71.7852, -16.091], [-71.7079, -16.0434], [-71.6365, -16.1624], [-71.5889, -16.2932], [-71.4997, -16.317], [-71.4878, -16.4241], [-71.345, -16.4658], [-71.2736, -16.4003], [-71.1606, -16.3527], [-71.0833, -16.3587], [-70.9941, -16.2338], [-70.9465, -16.0969], [-70.8691, -15.9363], [-70.7799, -15.9185], [-70.6788, -15.8828], [-70.6193, -15.7579], [-70.5479, -15.6567], [-70.5301, -15.4783], [-70.5122, -15.2998], [-70.5836, -15.1392], [-70.6907, -15.0619], [-70.7918, -14.9905], [-70.8691, -14.8477], [-70.8751, -14.7406], [-70.8334, -14.6812], [-70.7502, -14.6098], [-70.7561, -14.4254], [-70.6966, -14.3302], [-70.6193, -14.2885], [-70.4289, -14.1934]]]]}, "geometry_name": "geom", "properties": {"gid": 23887, "nro_aviso": 230, "nro_mapa": 1, "nivel": "Nivel 2", "fecha_emi": "2026-06-11Z", "cod_fen": "7", "cod_even": "02", "fech_ini": "2026-06-13T05:00:00Z", "fech_fin": "2026-06-14T04:59:59Z", "cod_sede": "00", "respons": "GLIMAY", "pub": 3, "cap": 0}}, {"type": "Feature", "id": "view_aviso.fid-5ad84ba9_1a0ea024327_6859", "geometry": {"type": "MultiPolygon", "coordinates": [[[[-70.4289, -14.1934], [-70.6193, -14.2885], [-70.6966, -14.3302], [-70.7561, -14.4254], [-70.7502, -14.6098], [-70.8334, -14.6812], [-70.8751, -14.7406], [-70.8691, -14.8477], [-70.7918, -14.9905], [-70.6907, -15.0619], [-70.5836, -15.1392], [-70.5122, -15.2998], [-70.5301, -15.4783], [-70.5479, -15.6567], [-70.6193, -15.7579], [-70.6788, -15.8828], [-70.7799, -15.9185], [-70.8691, -15.9363], [-70.9465, -16.0969], [-70.9941, -16.2338], [-71.0833, -16.3587], [-71.1606, -16.3527], [-71.2736, -16.4003], [-71.345, -16.4658], [-71.4878, -16.4241], [-71.4997, -16.317], [-71.5889, -16.2932], [-71.6365, -16.1624], [-71.7079, -16.0434], [-71.7852, -16.091], [-71.8447, -16.0018], [-71.9696, -15.9244], [-72.1422, -15.9601], [-72.2195, -15.859], [-72.16, -15.74], [-72.2314, -15.6627], [-72.3206, -15.6032], [-72.3206, -15.74], [-72.4158, -15.746], [-72.4693, -15.6627], [-72.5705, -15.6508], [-72.7073, -15.7222], [-72.8143, -15.7162], [-72.9333, -15.7162], [-72.8798, -15.5794], [-72.9333, -15.4961], [-73.0582, -15.4842], [-73.082, -15.4069], [-73.1296, -15.3474], [-73.082, -15.282], [-72.9928, -15.1868], [-72.9512, -15.0738], [-72.9333, -14.9667], [-72.9274, -14.8358], [-72.85, -14.812], [-72.8203, -14.7287], [-72.8798, -14.6455], [-73.0285, -14.58], [-73.1356, -14.6098], [-73.2367, -14.6514], [-73.3378, -14.6276], [-73.4033, -14.6514], [-73.4568, -14.5979], [-73.4568, -14.5205], [-73.4984, -14.4432], [-73.4806, -14.3599], [-73.3973, -14.2648], [-73.3497, -14.1934], [-73.3021, -14.1339], [-73.1653, -14.0506], [-73.0047, -14.0209], [-72.8738, -13.9197], [-72.7787, -13.7651], [-72.5645, -13.7115], [-72.279, -13.7413], [-72.1362, -13.8662], [-72.1957, -14.0149], [-72.2373, -14.1398], [-72.2314, -14.2707], [-72.1719, -14.354], [-72.0232, -14.3302], [-71.9161, -14.3599], [-71.7793, -14.3302], [-71.6603, -14.3242], [-71.6008, -14.1934], [-71.4818, -14.1815], [-71.3212, -14.2112], [-71.2974, -14.0982], [-71.3391, -13.9435], [-71.3093, -13.8186], [-71.2439, -13.7234], [-71.0238, -13.6996], [-70.8572, -13.7413], [-70.7621, -13.8008], [-70.6728, -13.8662], [-70.5598, -13.9852], [-70.3992, -14.0447], [-70.4289, -14.1934]], [[-72.1778, -14.6217], [-72.2135, -14.586], [-72.2433, -14.5324], [-72.2433, -14.4849], [-72.2552, -14.4075], [-72.3028, -14.3183], [-72.3266, -14.2648], [-72.3682, -14.2053], [-72.4336, -14.1696], [-72.5288, -14.1339], [-72.6061, -14.1279], [-72.7192, -14.1279], [-72.8322, -14.1755], [-72.8679, -14.2172], [-72.9155, -14.3123], [-72.9155, -14.3837], [-72.8976, -14.4313], [-72.8738, -14.4968], [-72.8262, -14.5503], [-72.8203, -14.5592], [-72.8203, -14.5622], [-72.7965, -14.6098], [-72.7727, -14.6574], [-72.7608, -14.699], [-72.7668, -14.7585], [-72.8143, -14.812], [-72.8381, -14.8418], [-72.856, -14.8834], [-72.8798, -14.9488], [-72.8857, -14.9905], [-72.8798, -15.044], [-72.85, -15.0797], [-72.8203, -15.1035], [-72.8143, -15.1392], [-72.8203, -15.1749], [-72.85, -15.2284], [-72.8857, -15.2582], [-72.9393, -15.3177], [-72.9631, -15.3712], [-72.9512, -15.4069], [-72.9274, -15.4247], [-72.8917, -15.4426], [-72.8679, -15.4545], [-72.85, -15.4723], [-72.8441, -15.5259], [-72.8441, -15.5556], [-72.8143, -15.5913], [-72.7727, -15.6032], [-72.7132, -15.6151], [-72.6418, -15.6091], [-72.5705, -15.6032], [-72.5229, -15.5794], [-72.4753, -15.5913], [-72.4277, -15.6091], [-72.392, -15.5735], [-72.3801, -15.5259], [-72.3385, -15.5259], [-72.2671, -15.5437], [-72.2433, -15.5556], [-72.2254, -15.5735], [-72.1719, -15.5794], [-72.0946, -15.5854], [-72.0291, -15.5794], [-72.0053, -15.5973], [-71.9934, -15.6448], [-71.9994, -15.6924], [-71.9696, -15.7995], [-71.9221, -15.8352], [-71.8566, -15.859], [-71.7614, -15.8709], [-71.696, -15.8709], [-71.6425, -15.9006], [-71.6187, -15.9304], [-71.5949, -15.9542], [-71.5711, -15.9839], [-71.4997, -16.0434], [-71.4045, -16.0434], [-71.3272, -15.9899], [-71.2915, -16.0137], [-71.2855, -16.0553], [-71.2855, -16.1029], [-71.2617, -16.1386], [-71.2023, -16.1683], [-71.1249, -16.1743], [-71.0714, -16.1326], [-71.0179, -16.0612], [-71.0119, -16.0018], [-71.0, -15.9423], [-70.9881, -15.853], [-70.9941, -15.7936], [-70.9941, -15.7698], [-71.0238, -15.7103], [-71.0535, -15.6448], [-71.0833, -15.6032], [-71.1249, -15.5378], [-71.1368, -15.4485], [-71.119, -15.3831], [-71.1011, -15.3355], [-71.0833, -15.2701], [-71.0773, -15.1987], [-71.0773, -15.1095], [-71.1011, -15.0321], [-71.1428, -14.9964], [-71.1904, -14.9667], [-71.2558, -14.9488], [-71.351, -14.9429], [-71.4402, -14.9251], [-71.5711, -14.9191], [-71.6722, -14.8894], [-71.696, -14.8358], [-71.696, -14.7942], [-71.6722, -14.7406], [-71.6306, -14.6931], [-71.583, -14.6455], [-71.5473, -14.6038], [-71.5056, -14.5265], [-71.5056, -14.4254], [-71.5651, -14.4016], [-71.6603, -14.3956], [-71.7852, -14.467], [-71.8209, -14.5265], [-71.8923, -14.5562], [-71.9577, -14.58], [-72.0232, -14.6038], [-72.0529, -14.6336], [-72.1065, -14.6395], [-72.1778, -14.6217]]]]}, "geometry_name": "geom", "properties": {"gid": 23888, "nro_aviso": 230, "nro_mapa": 1, "nivel": "Nivel 3", "fecha_emi": "2026-06-11Z", "cod_fen": "7", "cod_even": "02", "fech_ini": "2026-06-13T05:00:00Z", "fech_fin": "2026-06-14T04:59:59Z", "cod_sede": "00", "respons": "GLIMAY", "pub": 3, "cap": 0}}, {"type": "Feature", "id": "view_aviso.fid-5ad84ba9_1a0ea024327_685a", "geometry": {"type": "MultiPolygon", "coordinates": [[[[-72.1778, -14.6217], [-72.1065, -14.6395], [-72.0529, -14.6336], [-72.0232, -14.6038], [-71.9577, -14.58], [-71.8923, -14.5562], [-71.8209, -14.5265], [-71.7852, -14.467], [-71.6603, -14.3956], [-71.5651, -14.4016], [-71.5056, -14.4254], [-71.5056, -14.5265], [-71.5473, -14.6038], [-71.583, -14.6455], [-71.6306, -14.6931], [-71.6722, -14.7406], [-71.696, -14.7942], [-71.696, -14.8358], [-71.6722, -14.8894], [-71.5711, -14.9191], [-71.4402, -14.9251], [-71.351, -14.9429], [-71.2558, -14.9488], [-71.1904, -14.9667], [-71.1428, -14.9964], [-71.1011, -15.0321], [-71.0773, -15.1095], [-71.0773, -15.1987], [-71.0833, -15.2701], [-71.1011, -15.3355], [-71.119, -15.3831], [-71.1368, -15.4485], [-71.1249, -15.5378], [-71.0833, -15.6032], [-71.0535, -15.6448], [-71.0238, -15.7103], [-70.9941, -15.7698], [-70.9941, -15.7936], [-70.9881, -15.853], [-71.0, -15.9423], [-71.0119, -16.0018], [-71.0179, -16.0612], [-71.0714, -16.1326], [-71.1249, -16.1743], [-71.2023, -16.1683], [-71.2617, -16.1386], [-71.2855, -16.1029], [-71.2855, -16.0553], [-71.2915, -16.0137], [-71.3272, -15.9899], [-71.4045, -16.0434], [-71.4997, -16.0434], [-71.5711, -15.9839], [-71.5949, -15.9542], [-71.6187, -15.9304], [-71.6425, -15.9006], [-71.696, -15.8709], [-71.7614, -15.8709], [-71.8566, -15.859], [-71.9221, -15.8352], [-71.9696, -15.7995], [-71.9994, -15.6924], [-71.9934, -15.6448], [-72.0053, -15.5973], [-72.0291, -15.5794], [-72.0946, -15.5854], [-72.1719, -15.5794], [-72.2254, -15.5735], [-72.2433, -15.5556], [-72.2671, -15.5437], [-72.3385, -15.5259], [-72.3801, -15.5259], [-72.392, -15.5735], [-72.4277, -15.6091], [-72.4753, -15.5913], [-72.5229, -15.5794], [-72.5705, -15.6032], [-72.6418, -15.6091], [-72.7132, -15.6151], [-72.7727, -15.6032], [-72.8143, -15.5913], [-72.8441, -15.5556], [-72.8441, -15.5259], [-72.85, -15.4723], [-72.8679, -15.4545], [-72.8917, -15.4426], [-72.9274, -15.4247], [-72.9512, -15.4069], [-72.9631, -15.3712], [-72.9393, -15.3177], [-72.8857, -15.2582], [-72.85, -15.2284], [-72.8203, -15.1749], [-72.8143, -15.1392], [-72.8203, -15.1035], [-72.85, -15.0797], [-72.8798, -15.044], [-72.8857, -14.9905], [-72.8798, -14.9488], [-72.856, -14.8834], [-72.8381, -14.8418], [-72.8143, -14.812], [-72.7668, -14.7585], [-72.7608, -14.699], [-72.7727, -14.6574], [-72.7965, -14.6098], [-72.8203, -14.5622], [-72.8203, -14.5592], [-72.8262, -14.5503], [-72.8738, -14.4968], [-72.8976, -14.4313], [-72.9155, -14.3837], [-72.9155, -14.3123], [-72.8679, -14.2172], [-72.8322, -14.1755], [-72.7192, -14.1279], [-72.6061, -14.1279], [-72.5288, -14.1339], [-72.4336, -14.1696], [-72.3682, -14.2053], [-72.3266, -14.2648], [-72.3028, -14.3183], [-72.2552, -14.4075], [-72.2433, -14.4849], [-72.2433, -14.5324], [-72.2135, -14.586], [-72.1778, -14.6217]]]]}, "geometry_name": "geom", "properties": {"gid": 23889, "nro_aviso": 230, "nro_mapa": 1, "nivel": "Nivel 4", "fecha_emi": "2026-06-11Z", "cod_fen": "7", "cod_even": "02", "fech_ini": "2026-06-13T05:00:00Z", "fech_fin": "2026-06-14T04:59:59Z", "cod_sede": "00", "respons": "GLIMAY", "pub": 3, "cap": 0}}], "crs": {"type": "name", "properties": {"name": "urn:ogc:def:crs:EPSG::4326"}}, "_note": "Trimmed fixture: geometry decimated. Aviso 230/2026 ROJO (heladas) mapa 1. Source qry:230_1_2026"}