{"type": "FeatureCollection", "totalFeatures": 2, "features": [{"type": "Feature", "id": "view_aviso.fid-5ad84ba9_1a0ea024327_5306", "geometry": {"type": "MultiPolygon", "coordinates": [[[[-75.1, -0.081], [-74.0196, -1.0709], [-73.1033, -2.0804], [-71.9941, -2.3683], [-70.5513, -2.4562], [-70.0894, -4.2888], [-70.7211, -4.1871], [-71.3047, -4.4171], [-71.7265, -4.4967], [-72.0137, -4.6341], [-72.3118, -4.7838], [-72.5213, -4.9583], [-72.8229, -5.1437], [-72.9097, -5.3697], [-72.9856, -5.6613], [-73.1119, -5.857], [-73.2231, -6.0254], [-73.1806, -6.2573], [-73.1374, -6.4899], [-73.2625, -6.5855], [-73.3818, -6.6269], [-73.5103, -6.6748], [-73.6237, -6.7451], [-73.7539, -6.9495], [-73.7111, -7.2525], [-73.917, -7.5893], [-73.7639, -7.8725], [-73.5872, -8.1387], [-73.3392, -8.6186], [-73.0894, -8.8373], [-72.9471, -9.0416], [-73.0304, -9.2291], [-72.6684, -9.4402], [-72.5551, -9.4698], [-72.4312, -9.4815], [-72.2962, -9.5339], [-72.161, -9.8179], [-71.209, -9.964], [-70.9546, -9.7456], [-70.7992, -9.6419], [-70.6901, -9.5361], [-70.5657, -9.4325], [-70.586, -9.5879], [-70.5326, -9.7388], [-70.4429, -11.0147], [-70.1065, -11.0029], [-69.74, -10.9647], [-68.7271, -12.6659], [-68.8755, -12.9411], [-68.8614, -13.2124], [-68.9413, -13.5249], [-68.988, -13.7899], [-68.8715, -14.1093], [-69.046, -14.4285], [-69.3607, -14.9305], [-69.2781, -15.1031], [-68.9184, -16.4037], [-70.423, -18.3139], [-70.7883, -18.0599], [-70.931, -17.9262], [-71.1753, -17.7956], [-71.3649, -17.5259], [-71.4646, -17.3264], [-71.827, -17.1779], [-72.1122, -17.0074], [-72.2003, -16.9176], [-72.3111, -16.8089], [-72.4594, -16.6999], [-72.9976, -16.5116], [-73.2722, -16.3982], [-73.5833, -16.2426], [-73.9181, -16.0952], [-74.2497, -15.8708], [-74.4968, -15.7094], [-74.9866, -15.4705], [-75.1564, -15.3221], [-75.3515, -15.144], [-75.4969, -14.9274], [-75.9135, -14.6607], [-76.0579, -14.3989], [-76.2281, -14.1497], [-76.2717, -13.9857], [-76.2793, -13.8537], [-76.3092, -13.2452], [-76.5066, -12.9322], [-76.5617, -12.8093], [-76.6548, -12.6875], [-76.7039, -12.5833], [-76.799, -12.4994], [-76.7891, -12.4696], [-76.7825, -12.3986], [-76.8162, -12.3454], [-76.8976, -12.2781], [-77.0082, -12.2168], [-77.0394, -12.1882], [-77.0288, -12.1406], [-77.0709, -12.1], [-77.1637, -12.0753], [-77.1453, -12.0306], [-77.1353, -11.9518], [-77.1473, -11.8997], [-77.1801, -11.8449], [-77.1787, -11.8176], [-77.1956, -11.7774], [-77.1712, -11.753], [-77.2793, -11.5879], [-77.6401, -11.2756], [-77.7023, -10.8753], [-77.9627, -10.4832], [-78.052, -10.3473], [-78.184, -10.1095], [-78.2229, -9.9242], [-78.2879, -9.7296], [-78.3643, -9.6068], [-78.3967, -9.4772], [-78.4176, -9.3608], [-78.5241, -9.2719], [-78.5762, -9.2136], [-78.5667, -9.1662], [-78.6481, -8.9894], [-78.9134, -8.4293], [-79.3581, -7.8658], [-79.6196, -7.2524], [-80.0543, -6.6912], [-81.02, -6.1262], [-80.8513, -5.6463], [-81.1773, -5.1374], [-81.2993, -4.6322], [-81.2429, -4.2598], [-80.8156, -3.8069], [-80.441, -3.493], [-80.3152, -3.395], [-80.1857, -3.6583], [-80.1998, -3.9472], [-80.4659, -4.1288], [-80.4502, -4.3935], [-80.1902, -4.3349], [-79.9016, -4.397], [-79.5983, -4.4673], [-79.3052, -4.9013], [-78.9413, -4.8967], [-78.6345, -4.4671], [-78.4621, -3.8433], [-78.2296, -3.4868], [-75.688, -1.6784], [-75.2345, -0.5501], [-75.3513, -0.4595], [-75.4655, -0.3069], [-75.5915, -0.1211], [-75.445, -0.1538], [-75.1, -0.081]], [[-70.6581, -10.0541], [-70.6574, -10.057], [-70.6574, -10.0551], [-70.6581, -10.0541]], [[-75.6623, -12.686], [-75.6623, -12.8127], [-75.7456, -12.9376], [-75.7813, -13.0744], [-75.7575, -13.2053], [-75.6742, -13.2231], [-75.5136, -13.2469], [-75.4601, -13.3362], [-75.4244, -13.4016], [-75.4125, -13.5325], [-75.4244, -13.6395], [-75.4066, -13.7704], [-75.3411, -13.8418], [-75.1984, -13.931], [-75.121, -13.9727], [-75.0496, -14.0262], [-74.9842, -14.0857], [-74.9783, -14.1511], [-74.9545, -14.2344], [-74.8771, -14.3296], [-74.7819, -14.4307], [-74.6808, -14.4486], [-74.5856, -14.4961], [-74.55, -14.5735], [-74.4607, -14.6568], [-74.3417, -14.6984], [-74.2109, -14.7103], [-74.1038, -14.7044], [-74.0205, -14.8055], [-73.9789, -14.8888], [-73.9134, -14.9601], [-73.8183, -15.0375], [-73.7469, -15.1148], [-73.5863, -15.2338], [-73.4019, -15.2873], [-73.2234, -15.2457], [-73.1163, -15.1862], [-72.9498, -15.097], [-72.7535, -15.1208], [-72.569, -15.204], [-72.3727, -15.2873], [-71.992, -15.3765], [-71.7243, -15.4122], [-71.5399, -15.3647], [-71.5167, -15.3344], [-71.3739, -14.9775], [-71.3168, -14.7727], [-71.4372, -14.6812], [-71.5383, -14.5325], [-71.5145, -14.4194], [-71.6692, -14.3897], [-71.8536, -14.4194], [-71.9785, -14.3243], [-72.0082, -14.2053], [-72.1569, -14.1458], [-72.2878, -14.0566], [-72.3592, -13.9198], [-72.3652, -13.7591], [-72.5436, -13.5747], [-72.8589, -13.432], [-73.0492, -13.432], [-73.2753, -13.4677], [-73.4894, -13.4974], [-73.6263, -13.4677], [-73.6917, -13.313], [-73.8523, -13.2357], [-74.0248, -13.2476], [-74.2509, -13.1524], [-74.3579, -13.0334], [-74.465, -13.0513], [-74.5899, -13.0096], [-74.7684, -13.0215], [-74.8114, -13.0125], [-74.8504, -12.9545], [-74.8837, -12.8593], [-74.8932, -12.7594], [-74.9265, -12.6547], [-74.9836, -12.6261], [-75.0217, -12.5452], [-75.0835, -12.4691], [-75.1502, -12.412], [-75.1787, -12.3453], [-75.1692, -12.2644], [-75.2429, -12.1079], [-75.4571, -11.8509], [-75.6284, -11.5225], [-75.7685, -11.333], [-75.8164, -11.2984], [-75.8584, -11.2687], [-76.0424, -11.1371], [-76.2137, -11.1371], [-76.4707, -11.1513], [-76.7087, -11.3036], [-76.5278, -11.5796], [-76.4945, -11.6423], [-76.4037, -11.7426], [-76.332, -11.8095], [-76.2652, -11.9433], [-76.1218, -12.0627], [-76.0741, -12.2299], [-75.926, -12.3207], [-75.852, -12.4601], [-75.6998, -12.6361], [-75.6623, -12.686]]]]}, "geometry_name": "geom", "properties": {"gid": 25810, "nro_aviso": 388, "nro_mapa": 1, "nivel": "Nivel 1", "fecha_emi": "2026-09-28Z", "cod_fen": "7", "cod_even": "02", "fech_ini": "2026-09-30T05:00:00Z", "fech_fin": "2026-10-01T04:59:59Z", "cod_sede": "00", "respons": "NGOICOCHEA", "pub": 3, "cap": 0}}, {"type": "Feature", "id": "view_aviso.fid-5ad84ba9_1a0ea024327_5320", "geometry": {"type": "MultiPolygon", "coordinates": [[[[-74.8361, -12.9878], [-74.7982, -13.0037], [-74.6554, -13.0096], [-74.5364, -13.0513], [-74.4055, -13.0156], [-74.3342, -13.0869], [-74.1378, -13.2178], [-73.9534, -13.2416], [-73.7571, -13.2416], [-73.6739, -13.3844], [-73.5846, -13.4915], [-73.3705, -13.4736], [-73.1742, -13.4439], [-72.9362, -13.4379], [-72.6983, -13.4736], [-72.4544, -13.664], [-72.3592, -13.8424], [-72.3533, -13.9852], [-72.2224, -14.1161], [-72.0737, -14.1637], [-71.9844, -14.2648], [-71.925, -14.3897], [-71.7286, -14.4076], [-71.5978, -14.3719], [-71.5085, -14.473], [-71.4966, -14.6633], [-71.3777, -14.7169], [-71.3168, -14.8633], [-71.431, -15.1631], [-71.5281, -15.3362], [-71.6054, -15.4003], [-71.8612, -15.4003], [-72.1467, -15.3349], [-72.4917, -15.2159], [-72.6999, -15.1505], [-72.8486, -15.097], [-73.0152, -15.1089], [-73.152, -15.2219], [-73.3007, -15.2814], [-73.4792, -15.2695], [-73.6933, -15.1624], [-73.7945, -15.0672], [-73.8599, -15.0196], [-73.9491, -14.9185], [-74.0027, -14.859], [-74.0681, -14.7281], [-74.1573, -14.7044], [-74.2823, -14.7044], [-74.4012, -14.6806], [-74.5143, -14.627], [-74.5737, -14.514], [-74.6392, -14.4486], [-74.7344, -14.4545], [-74.8355, -14.395], [-74.9009, -14.2998], [-74.9664, -14.2047], [-74.9842, -14.1035], [-75.008, -14.0619], [-75.0913, -14.0143], [-75.1627, -13.937], [-75.234, -13.9251], [-75.3828, -13.8061], [-75.4185, -13.705], [-75.4244, -13.6098], [-75.4066, -13.4611], [-75.4422, -13.354], [-75.4958, -13.2707], [-75.591, -13.2291], [-75.7278, -13.2231], [-75.7813, -13.1339], [-75.7754, -13.009], [-75.7218, -12.896], [-75.6623, -12.7413], [-75.6998, -12.6361], [-75.852, -12.4601], [-75.926, -12.3207], [-76.0741, -12.2299], [-76.1218, -12.0627], [-76.2652, -11.9433], [-76.332, -11.8095], [-76.4037, -11.7426], [-76.4945, -11.6423], [-76.5278, -11.5796], [-76.7087, -11.3036], [-76.4707, -11.1513], [-76.2137, -11.1371], [-76.0424, -11.1371], [-75.8584, -11.2687], [-75.8164, -11.2984], [-75.7685, -11.333], [-75.6284, -11.5225], [-75.4571, -11.8509], [-75.2429, -12.1079], [-75.1692, -12.2644], [-75.1787, -12.3453], [-75.1502, -12.412], [-75.0835, -12.4691], [-75.0217, -12.5452], [-74.9836, -12.6261], [-74.9265, -12.6547], [-74.8932, -12.7594], [-74.8837, -12.8593], [-74.8504, -12.9545], [-74.8361, -12.9878]]]]}, "geometry_name": "geom", "properties": {"gid": 25811, "nro_aviso": 388, "nro_mapa": 1, "nivel": "Nivel 2", "fecha_emi": "2026-09-28Z", "cod_fen": "7", "cod_even": "02", "fech_ini": "2026-09-30T05:00:00Z", "fech_fin": "2026-10-01T04:59:59Z", "cod_sede": "00", "respons": "NGOICOCHEA", "pub": 3, "cap": 0}}], "crs": {"type": "name", "properties": {"name": "urn:ogc:def:crs:EPSG::4326"}}, "_note": "Trimmed fixture: geometry decimated (every k-th vertex, 4 decimals). Use only for tests, not for real alerting. Source: wfs388_1.json"}