{"type": "FeatureCollection", "totalFeatures": 4, "features": [{"type": "Feature", "id": "view_aviso.fid-5ad84ba9_1a0ea024327_4ad4", "geometry": {"type": "MultiPolygon", "coordinates": [[[[-74.2721, -13.0359], [-74.2514, -13.0566], [-74.2359, -13.0566], [-74.1692, -13.0851], [-74.1169, -13.128], [-74.0883, -13.1613], [-74.036, -13.2231], [-73.9932, -13.2993], [-73.9741, -13.3469], [-73.9503, -13.3945], [-73.9218, -13.4325], [-73.8789, -13.4611], [-73.8314, -13.4992], [-73.798, -13.5229], [-73.7647, -13.5467], [-73.6981, -13.5896], [-73.66, -13.6039], [-73.5934, -13.6181], [-73.522, -13.6324], [-73.4744, -13.6324], [-73.4268, -13.6324], [-73.384, -13.6324], [-73.3507, -13.6324], [-73.3353, -13.6372], [-73.3233, -13.6288], [-73.152, -13.636], [-72.9807, -13.6645], [-72.8165, -13.7288], [-72.6737, -13.7716], [-72.5238, -13.7787], [-72.4239, -13.7645], [-72.3311, -13.7502], [-72.224, -13.7502], [-72.0955, -13.7645], [-71.9742, -13.7074], [-71.9242, -13.6859], [-71.8671, -13.6645], [-71.8171, -13.6645], [-71.7814, -13.6645], [-71.6387, -13.6931], [-71.553, -13.743], [-71.4602, -13.8144], [-71.3746, -13.9001], [-71.2532, -13.9643], [-71.0962, -14.0643], [-70.8606, -14.2142], [-70.7607, -14.2927], [-70.6607, -14.4426], [-70.6529, -14.4975], [-70.6393, -14.5069], [-70.5465, -14.7781], [-70.5465, -14.8638], [-70.6464, -15.0851], [-70.8178, -15.1636], [-70.9748, -15.1707], [-71.0962, -15.1422], [-71.2818, -15.0637], [-71.4245, -14.9494], [-71.5744, -14.7424], [-71.5931, -14.6749], [-71.6173, -14.6568], [-71.8029, -14.5568], [-71.9599, -14.4997], [-72.0456, -14.4854], [-72.1883, -14.4854], [-72.3923, -14.4532], [-72.4001, -14.4688], [-72.4953, -14.5045], [-72.5786, -14.5283], [-72.7094, -14.5699], [-72.8879, -14.5878], [-73.089, -14.5842], [-73.3709, -14.602], [-73.5422, -14.602], [-73.892, -14.4771], [-74.1918, -14.3593], [-74.406, -14.2023], [-74.563, -14.0845], [-74.6915, -13.9096], [-74.7558, -13.799], [-74.8129, -13.6491], [-74.8557, -13.5741], [-74.9021, -13.5277], [-74.9485, -13.4777], [-74.9842, -13.442], [-75.0377, -13.3921], [-75.0841, -13.3314], [-75.1341, -13.2957], [-75.1734, -13.2493], [-75.2019, -13.2279], [-75.259, -13.1672], [-75.2912, -13.1351], [-75.334, -13.0744], [-75.3518, -13.0459], [-75.3947, -13.0102], [-75.4232, -12.9781], [-75.4375, -12.9566], [-75.4482, -12.9388], [-75.466, -12.9067], [-75.4768, -12.8853], [-75.4768, -12.8567], [-75.4768, -12.846], [-75.4839, -12.7853], [-75.5053, -12.7532], [-75.5196, -12.7353], [-75.5267, -12.7068], [-75.5231, -12.6711], [-75.5315, -12.6164], [-75.5077, -12.5509], [-75.5136, -12.4736], [-75.5255, -12.3427], [-75.472, -12.2416], [-75.4006, -12.1881], [-75.3114, -12.1821], [-75.2697, -12.2059], [-75.1984, -12.2595], [-75.1686, -12.313], [-75.1417, -12.3399], [-75.1097, -12.3506], [-74.9764, -12.4458], [-74.8432, -12.579], [-74.7575, -12.7218], [-74.6909, -12.8074], [-74.6148, -12.8931], [-74.5101, -12.9597], [-74.3958, -12.9978], [-74.2721, -13.0359]]]]}, "geometry_name": "geom", "properties": {"gid": 25809, "nro_aviso": 388, "nro_mapa": 2, "nivel": "Nivel 3", "fecha_emi": "2026-09-28Z", "cod_fen": "7", "cod_even": "02", "fech_ini": "2026-10-01T05:00:00Z", "fech_fin": "2026-10-02T04:59:59Z", "cod_sede": "00", "respons": "NGOICOCHEA", "pub": 3, "cap": 0}}, {"type": "Feature", "id": "view_aviso.fid-5ad84ba9_1a0ea024327_4ad5", "geometry": {"type": "MultiPolygon", "coordinates": [[[[-75.8587, -12.5153], [-70.7292, -18.1086], [-70.8896, -17.977], [-71.0969, -17.8665], [-71.3686, -17.6784], [-71.4151, -17.3766], [-71.5624, -17.2601], [-72.0457, -17.0172], [-72.1475, -16.9564], [-72.2778, -16.8737], [-72.3707, -16.7627], [-72.8239, -16.5865], [-73.1349, -16.4464], [-73.3384, -16.3263], [-73.694, -16.2361], [-74.0292, -16.005], [-74.3358, -15.8452], [-74.6972, -15.6296], [-75.0774, -15.4288], [-75.2378, -15.2751], [-75.3932, -15.0872], [-75.6227, -14.8442], [-75.9321, -14.5883], [-76.1259, -14.3566], [-76.2553, -14.1565], [-76.2822, -13.9106], [-76.248, -13.8314], [-76.3706, -13.167], [-76.507, -12.9196], [-76.5733, -12.7998], [-76.6582, -12.6832], [-76.7092, -12.5754], [-76.7995, -12.4993], [-76.7893, -12.4706], [-76.781, -12.3988], [-76.8173, -12.3486], [-76.8923, -12.2828], [-77.0043, -12.2185], [-77.039, -12.1935], [-77.026, -12.1467], [-77.0637, -12.1046], [-77.1495, -12.068], [-77.1405, -12.0402], [-77.1328, -11.9768], [-77.1465, -11.9087], [-77.1685, -11.852], [-77.1834, -11.8242], [-77.1899, -11.7848], [-77.1804, -11.7754], [-77.1968, -11.6975], [-77.5356, -11.3575], [-77.6288, -11.0825], [-77.865, -10.6397], [-77.9962, -10.4297], [-78.0992, -10.2063], [-78.2, -9.9899], [-78.2289, -9.8245], [-78.3295, -9.6575], [-78.3743, -9.5483], [-78.4129, -9.424], [-78.4501, -9.3295], [-78.5108, -9.1797], [-78.5959, -9.1881], [-78.5958, -9.0776], [-78.7598, -8.776], [-79.0062, -8.1917], [-79.4438, -7.7031], [-79.6822, -7.138], [-80.3891, -6.4917], [-81.1452, -5.9706], [-80.8976, -5.5127], [-81.1682, -5.0815], [-81.2797, -4.5502], [-81.196, -4.2253], [-80.7376, -3.7126], [-80.4083, -3.4867], [-80.2224, -3.4352], [-80.1984, -3.6875], [-80.2186, -3.9553], [-80.4571, -4.1246], [-80.4497, -4.3932], [-80.2027, -4.3367], [-79.9221, -4.387], [-79.6085, -4.4574], [-79.3524, -4.8738], [-78.9764, -4.9059], [-78.6585, -4.5859], [-78.4888, -3.9338], [-78.2951, -3.3987], [-77.8199, -2.9896], [-75.2398, -0.6003], [-75.3153, -0.4664], [-75.446, -0.3391], [-75.577, -0.1788], [-75.4974, -0.1314], [-75.2832, -0.1409], [-74.3064, -0.8956], [-73.1983, -1.7796], [-72.2626, -2.4377], [-70.966, -2.2214], [-70.0192, -4.1478], [-70.5697, -4.211], [-71.1561, -4.3947], [-71.5669, -4.5058], [-71.9307, -4.5659], [-72.2131, -4.7535], [-72.4377, -4.9095], [-72.7126, -5.0552], [-72.8679, -5.2744], [-72.9536, -5.5525], [-73.0445, -5.7762], [-73.1866, -5.9455], [-73.2468, -6.1378], [-73.1338, -6.3741], [-73.1927, -6.5478], [-73.3285, -6.597], [-73.4368, -6.6513], [-73.5514, -6.7026], [-73.6754, -6.8094], [-73.7618, -7.0301], [-73.7952, -7.3471], [-73.8225, -7.7005], [-73.7095, -7.9589], [-73.5334, -8.2879], [-73.2612, -8.6778], [-73.072, -8.8661], [-72.9576, -9.1361], [-73.1011, -9.2726], [-72.6508, -9.446], [-72.54, -9.4726], [-72.4134, -9.4826], [-72.2819, -9.5526], [-72.157, -9.8322], [-71.1877, -9.9198], [-70.9497, -9.7457], [-70.7957, -9.6377], [-70.6917, -9.5353], [-70.5708, -9.4338], [-70.5865, -9.5816], [-70.5315, -9.7297], [-70.4564, -10.9941], [-70.152, -11.0335], [-69.784, -10.9317], [-68.7249, -12.6056], [-68.8682, -12.8974], [-68.8708, -13.1684], [-68.9165, -13.4879], [-69.0059, -13.7404], [-68.9169, -14.0316], [-69.0105, -14.3265], [-75.8587, -12.5153]], [[-70.6574, -10.0551], [-70.6581, -10.0541], [-70.6574, -10.057], [-70.6574, -10.0551]]]]}, "geometry_name": "geom", "properties": {"gid": 25806, "nro_aviso": 388, "nro_mapa": 2, "nivel": "Nivel 1", "fecha_emi": "2026-09-28Z", "cod_fen": "7", "cod_even": "02", "fech_ini": "2026-10-01T05:00:00Z", "fech_fin": "2026-10-02T04:59:59Z", "cod_sede": "00", "respons": "NGOICOCHEA", "pub": 3, "cap": 0}}, {"type": "Feature", "id": "view_aviso.fid-5ad84ba9_1a0ea024327_4ae7", "geometry": {"type": "MultiPolygon", "coordinates": [[[[-76.7866, -10.482], [-76.1216, -10.9757], [-74.9699, -12.1274], [-74.4084, -12.5509], [-73.406, -13.4166], [-72.2163, -13.1311], [-70.6173, -13.6545], [-69.3228, -14.4445], [-69.1479, -14.5654], [-69.151, -14.5811], [-69.1698, -14.5889], [-69.1889, -14.5867], [-69.2054, -14.5848], [-69.2217, -14.5832], [-69.2251, -14.5949], [-69.2304, -14.6064], [-69.2289, -14.6202], [-69.2265, -14.6309], [-69.2271, -14.6427], [-69.2291, -14.6563], [-69.2412, -14.6594], [-69.249, -14.671], [-69.2536, -14.6897], [-69.2529, -14.7017], [-69.2448, -14.7129], [-69.2341, -14.7219], [-69.2281, -14.7343], [-69.2683, -14.7667], [-69.3092, -14.7698], [-69.3391, -14.7947], [-69.3538, -14.8017], [-69.3571, -14.844], [-69.3555, -14.8548], [-69.3548, -14.9259], [-69.363, -14.932], [-69.3605, -14.9443], [-69.361, -14.9533], [-69.3606, -14.9611], [-69.3552, -14.9655], [-69.3547, -14.9698], [-69.352, -14.9756], [-69.3455, -14.9832], [-69.3426, -14.9834], [-69.3387, -14.9887], [-69.3357, -14.9923], [-69.3335, -14.9938], [-69.3293, -14.9971], [-69.3256, -15.004], [-69.3234, -15.0049], [-69.3248, -15.0086], [-69.3223, -15.0106], [-69.3224, -15.0125], [-69.3213, -15.0194], [-69.3196, -15.0242], [-69.3197, -15.0278], [-69.318, -15.0311], [-69.3168, -15.0361], [-69.3142, -15.0414], [-69.3104, -15.0418], [-69.3054, -15.0397], [-69.3037, -15.0464], [-69.3014, -15.0517], [-69.3007, -15.0581], [-69.2959, -15.0677], [-69.2954, -15.0709], [-69.2923, -15.0731], [-69.2891, -15.0817], [-69.2918, -15.0845], [-69.2856, -15.0838], [-69.2852, -15.0954], [-69.2826, -15.0971], [-69.2795, -15.103], [-69.2734, -15.1032], [-69.2726, -15.1112], [-69.2686, -15.1043], [-69.2667, -15.111], [-69.2644, -15.1149], [-69.2584, -15.1126], [-69.2454, -15.1124], [-69.2443, -15.1197], [-69.2359, -15.1201], [-69.2326, -15.1247], [-69.2299, -15.1283], [-69.2246, -15.1363], [-69.2075, -15.1469], [-69.199, -15.155], [-69.1902, -15.1591], [-69.1846, -15.171], [-69.1698, -15.189], [-69.1549, -15.2124], [-69.1356, -15.2288], [-69.1312, -15.2363], [-69.1318, -15.2459], [-69.1217, -15.2531], [-69.1206, -15.2601], [-69.1287, -15.2595], [-69.1373, -15.2552], [-69.1417, -15.2597], [-69.1529, -15.2685], [-69.1948, -15.315], [-69.2323, -15.4418], [-69.311, -15.491], [-69.3145, -15.5136], [-69.3855, -15.6978], [-69.1061, -16.2221], [-69.0443, -16.2031], [-69.0073, -16.2164], [-68.975, -16.1923], [-68.9633, -16.1922], [-68.8847, -16.2657], [-69.0352, -16.5818], [-69.0209, -16.629], [-69.021, -16.671], [-69.0414, -16.6847], [-69.0523, -16.687], [-69.1108, -16.7139], [-69.1519, -16.724], [-69.2072, -16.813], [-69.2834, -16.8927], [-69.3436, -16.9869], [-69.3736, -16.9963], [-69.379, -17.0032], [-69.3846, -17.009], [-69.387, -17.0133], [-69.3921, -17.0187], [-69.3944, -17.0242], [-69.3818, -17.0379], [-69.3741, -17.0474], [-69.3751, -17.0563], [-69.49, -16.9553], [-70.1182, -17.1909], [-69.598, -17.6085], [-69.825, -17.7044], [-69.7783, -17.9041], [-69.7706, -18.0259], [-69.9095, -18.2108], [-70.7687, -17.3446], [-71.4683, -16.2382], [-72.5453, -15.5705], [-74.1452, -15.0746], [-74.959, -14.1038], [-75.5315, -13.3302], [-75.8943, -12.6461], [-76.3034, -11.8859], [-76.7985, -11.0888], [-76.7866, -10.482]], [[-73.3353, -13.6372], [-73.3507, -13.6324], [-73.384, -13.6324], [-73.4268, -13.6324], [-73.4744, -13.6324], [-73.522, -13.6324], [-73.5934, -13.6181], [-73.66, -13.6039], [-73.6981, -13.5896], [-73.7647, -13.5467], [-73.798, -13.5229], [-73.8314, -13.4992], [-73.8789, -13.4611], [-73.9218, -13.4325], [-73.9503, -13.3945], [-73.9741, -13.3469], [-73.9932, -13.2993], [-74.036, -13.2231], [-74.0883, -13.1613], [-74.1169, -13.128], [-74.1692, -13.0851], [-74.2359, -13.0566], [-74.2514, -13.0566], [-74.2721, -13.0359], [-74.3958, -12.9978], [-74.5101, -12.9597], [-74.6148, -12.8931], [-74.6909, -12.8074], [-74.7575, -12.7218], [-74.8432, -12.579], [-74.9764, -12.4458], [-75.1097, -12.3506], [-75.1417, -12.3399], [-75.1686, -12.313], [-75.1984, -12.2595], [-75.2697, -12.2059], [-75.3114, -12.1821], [-75.4006, -12.1881], [-75.472, -12.2416], [-75.5255, -12.3427], [-75.5136, -12.4736], [-75.5077, -12.5509], [-75.5315, -12.6164], [-75.5231, -12.6711], [-75.5267, -12.7068], [-75.5196, -12.7353], [-75.5053, -12.7532], [-75.4839, -12.7853], [-75.4768, -12.846], [-75.4768, -12.8567], [-75.4768, -12.8853], [-75.466, -12.9067], [-75.4482, -12.9388], [-75.4375, -12.9566], [-75.4232, -12.9781], [-75.3947, -13.0102], [-75.3518, -13.0459], [-75.334, -13.0744], [-75.2912, -13.1351], [-75.259, -13.1672], [-75.2019, -13.2279], [-75.1734, -13.2493], [-75.1341, -13.2957], [-75.0841, -13.3314], [-75.0377, -13.3921], [-74.9842, -13.442], [-74.9485, -13.4777], [-74.9021, -13.5277], [-74.8557, -13.5741], [-74.8129, -13.6491], [-74.7558, -13.799], [-74.6915, -13.9096], [-74.563, -14.0845], [-74.406, -14.2023], [-74.1918, -14.3593], [-73.892, -14.4771], [-73.5422, -14.602], [-73.3709, -14.602], [-73.089, -14.5842], [-72.8879, -14.5878], [-72.7094, -14.5699], [-72.5786, -14.5283], [-72.4953, -14.5045], [-72.4001, -14.4688], [-72.3923, -14.4532], [-72.1883, -14.4854], [-72.0456, -14.4854], [-71.9599, -14.4997], [-71.8029, -14.5568], [-71.6173, -14.6568], [-71.5931, -14.6749], [-71.5744, -14.7424], [-71.4245, -14.9494], [-71.2818, -15.0637], [-71.0962, -15.1422], [-70.9748, -15.1707], [-70.8178, -15.1636], [-70.6464, -15.0851], [-70.5465, -14.8638], [-70.5465, -14.7781], [-70.6393, -14.5069], [-70.6529, -14.4975], [-70.6607, -14.4426], [-70.7607, -14.2927], [-70.8606, -14.2142], [-71.0962, -14.0643], [-71.2532, -13.9643], [-71.3746, -13.9001], [-71.4602, -13.8144], [-71.553, -13.743], [-71.6387, -13.6931], [-71.7814, -13.6645], [-71.8171, -13.6645], [-71.8671, -13.6645], [-71.9242, -13.6859], [-71.9742, -13.7074], [-72.0955, -13.7645], [-72.224, -13.7502], [-72.3311, -13.7502], [-72.4239, -13.7645], [-72.5238, -13.7787], [-72.6737, -13.7716], [-72.8165, -13.7288], [-72.9807, -13.6645], [-73.152, -13.636], [-73.3233, -13.6288], [-73.3353, -13.6372]]]]}, "geometry_name": "geom", "properties": {"gid": 25807, "nro_aviso": 388, "nro_mapa": 2, "nivel": "Nivel 2", "fecha_emi": "2026-09-28Z", "cod_fen": "7", "cod_even": "02", "fech_ini": "2026-10-01T05:00:00Z", "fech_fin": "2026-10-02T04:59:59Z", "cod_sede": "00", "respons": "NGOICOCHEA", "pub": 3, "cap": 0}}, {"type": "Feature", "id": "view_aviso.fid-5ad84ba9_1a0ea024327_4ae8", "geometry": {"type": "MultiPolygon", "coordinates": [[[[-69.4013, -17.0961], [-69.4329, -17.1099], [-69.4491, -17.0978], [-69.4559, -17.1036], [-69.4666, -17.1127], [-69.4784, -17.122], [-69.5118, -17.1462], [-69.5429, -17.1552], [-69.5622, -17.1734], [-69.5662, -17.1783], [-69.5733, -17.1854], [-69.5732, -17.1869], [-69.5696, -17.1929], [-69.5721, -17.1969], [-69.5742, -17.1986], [-69.5752, -17.2001], [-69.5775, -17.203], [-69.578, -17.2041], [-69.5779, -17.2058], [-69.5785, -17.2069], [-69.5798, -17.2081], [-69.5817, -17.2085], [-69.5835, -17.2093], [-69.5854, -17.2095], [-69.5872, -17.2096], [-69.5878, -17.2097], [-69.5892, -17.2103], [-69.5906, -17.2105], [-69.592, -17.2098], [-69.5926, -17.2101], [-69.5941, -17.2119], [-69.5951, -17.2138], [-69.5985, -17.2147], [-69.6003, -17.2161], [-69.6015, -17.2171], [-69.6022, -17.219], [-69.6038, -17.2212], [-69.6034, -17.2225], [-69.6037, -17.2244], [-69.604, -17.2264], [-69.605, -17.2266], [-69.6063, -17.2273], [-69.6066, -17.2279], [-69.6061, -17.2294], [-69.6062, -17.2301], [-69.6103, -17.243], [-69.6132, -17.2523], [-69.6274, -17.273], [-69.6296, -17.2737], [-69.6317, -17.2735], [-69.6324, -17.2731], [-69.6349, -17.2711], [-69.6357, -17.2709], [-69.6363, -17.2712], [-69.6372, -17.2734], [-69.638, -17.2757], [-69.6389, -17.2769], [-69.6413, -17.2791], [-69.6433, -17.2801], [-69.6443, -17.281], [-69.6442, -17.2822], [-69.6426, -17.2842], [-69.6421, -17.2853], [-69.6413, -17.2866], [-69.6163, -17.2864], [-69.604, -17.2869], [-69.5943, -17.2883], [-69.5579, -17.3058], [-69.4841, -17.3612], [-69.4677, -17.4095], [-69.4684, -17.4658], [-69.5114, -17.4693], [-69.7399, -17.4193], [-69.9397, -17.3337], [-70.1182, -17.1909], [-70.161, -17.0838], [-70.0468, -16.9625], [-69.9255, -16.8625], [-69.7756, -16.7554], [-69.6756, -16.7269], [-69.5685, -16.7911], [-69.5257, -16.8911], [-69.4686, -17.0053], [-69.4013, -17.0961]]]]}, "geometry_name": "geom", "properties": {"gid": 25808, "nro_aviso": 388, "nro_mapa": 2, "nivel": "Nivel 1", "fecha_emi": "2026-09-28Z", "cod_fen": "7", "cod_even": "02", "fech_ini": "2026-10-01T05:00:00Z", "fech_fin": "2026-10-02T04:59:59Z", "cod_sede": "00", "respons": "NGOICOCHEA", "pub": 3, "cap": 0}}], "crs": {"type": "name", "properties": {"name": "urn:ogc:def:crs:EPSG::4326"}}, "_note": "Trimmed fixture: geometry decimated (every k-th vertex, 4 decimals). Use only for tests, not for real alerting. Source: wfs388_2.json"}